{
  "1214": {
    "slug_id": "1214",
    "name": "Unionville Livestock Market, Inc Market",
    "address": "28598 US Highway 136",
    "city": "Unionville",
    "state": "MO",
    "zip": "63565",
    "transportation": {
      "drummonds": "522",
      "yatesCenter": "271"
    }
  },
  "1237": {
    "slug_id": "1237",
    "name": "Unionville Livestock Market, Inc Market",
    "address": "28598 US Highway, 136",
    "city": "Unionville",
    "state": "MO",
    "zip": "63565",
    "transportation": {
      "drummonds": "522",
      "yatesCenter": "271"
    }
  },
  "1215": {
    "slug_id": "1215",
    "name": "Springfield Livestock Marketing Center Market",
    "address": "5914, 6821 W Independence Dr",
    "city": "Springfield",
    "state": "MO",
    "zip": "65802",
    "transportation": {
      "drummonds": "320",
      "yatesCenter": "174"
    }
  },
  "1255": {
    "slug_id": "1255",
    "name": "Springfield Livestock Marketing Center Market",
    "address": "5914, 6821 W Independence Dr",
    "city": "Springfield",
    "state": "MO",
    "zip": "65802",
    "transportation": {
      "drummonds": "320",
      "yatesCenter": "174"
    }
  },
  "1221": {
    "slug_id": "1221",
    "name": "New Cambria Livestock Auction Market",
    "address": "29262 MO-149",
    "city": "New Cambria",
    "state": "MO",
    "zip": "63558",
    "transportation": {
      "drummonds": "449",
      "yatesCenter": "253"
    }
  },
  "1235": {
    "slug_id": "1235",
    "name": "New Cambria Livestock Auction Market",
    "address": "29262 MO-149",
    "city": "New Cambria",
    "state": "MO",
    "zip": "63558",
    "transportation": {
      "drummonds": "449",
      "yatesCenter": "253"
    }
  },
  "1248": {
    "slug_id": "1248",
    "name": "New Cambria Livestock Auction Market",
    "address": "29262 MO-149",
    "city": "New Cambria",
    "state": "MO",
    "zip": "63558",
    "transportation": {
      "drummonds": "449",
      "yatesCenter": "253"
    }
  },
  "1226": {
    "slug_id": "1226",
    "name": "Joplin Regional Stockyards Market",
    "address": "10131 Cimarron Rd",
    "city": "Carthage",
    "state": "MO",
    "zip": "64836",
    "transportation": {
      "drummonds": "367",
      "yatesCenter": "120"
    }
  },
  "1245": {
    "slug_id": "1245",
    "name": "Joplin Regional Stockyards Market",
    "address": "10131 Cimarron Rd",
    "city": "Carthage",
    "state": "MO",
    "zip": "64836",
    "transportation": {
      "drummonds": "367",
      "yatesCenter": "120"
    }
  },
  "1229": {
    "slug_id": "1229",
    "name": "Ozarks Regional Stockyards Market",
    "address": "3292 US Hwy 63",
    "city": "West Plains",
    "state": "MO",
    "zip": "65775",
    "transportation": {
      "drummonds": "203",
      "yatesCenter": ""
    }
  },
  "1249": {
    "slug_id": "1249",
    "name": "Ozarks Regional Stockyards Market",
    "address": "3292 US Hwy 63",
    "city": "West Plains",
    "state": "MO",
    "zip": "65775",
    "transportation": {
      "drummonds": "203",
      "yatesCenter": "286"
    }
  },
  "1651": {
    "slug_id": "1651",
    "name": "Ozarks Regional Stockyards Market",
    "address": "3292 US Hwy 63",
    "city": "West Plains",
    "state": "MO",
    "zip": "65775",
    "transportation": {
      "drummonds": "203",
      "yatesCenter": "286"
    }
  },
  "1231": {
    "slug_id": "1231",
    "name": "Green City Livestock Auction Market",
    "address": "19037 MO-129",
    "city": "Green City",
    "state": "MO",
    "zip": "63545",
    "transportation": {
      "drummonds": "496",
      "yatesCenter": "258"
    }
  },
  "1234": {
    "slug_id": "1234",
    "name": "Green City Livestock Auction Market",
    "address": "19037 MO-129",
    "city": "Green City",
    "state": "MO",
    "zip": "63545",
    "transportation": {
      "drummonds": "496",
      "yatesCenter": "258"
    }
  },
  "1254": {
    "slug_id": "1254",
    "name": "Green City Livestock Auction Market",
    "address": "19037 MO-129",
    "city": "Green City",
    "state": "MO",
    "zip": "63545",
    "transportation": {
      "drummonds": "496",
      "yatesCenter": "258"
    }
  },
  "1276": {
    "slug_id": "1276",
    "name": "OKC West Market",
    "address": "7200 Rte 66",
    "city": "El Reno",
    "state": "OK",
    "zip": "73036",
    "transportation": {
      "drummonds": "522",
      "yatesCenter": "281"
    }
  },
  "1278": {
    "slug_id": "1278",
    "name": "OKC West Market",
    "address": "7200 Rte 66",
    "city": "El Reno",
    "state": "OK",
    "zip": "73036",
    "transportation": {
      "drummonds": "522",
      "yatesCenter": "281"
    }
  },
  "1280": {
    "slug_id": "1280",
    "name": "OKC West Market",
    "address": "7200 Rte 66",
    "city": "El Reno",
    "state": "OK",
    "zip": "73036",
    "transportation": {
      "drummonds": "522",
      "yatesCenter": "281"
    }
  },
  "1281": {
    "slug_id": "1281",
    "name": "OKC West Market",
    "address": "7200 Rte 66",
    "city": "El Reno",
    "state": "OK",
    "zip": "73036",
    "transportation": {
      "drummonds": "522",
      "yatesCenter": "281"
    }
  },
  "1290": {
    "slug_id": "1290",
    "name": "Santa Teresa Livestock Auction",
    "address": "107 Cattlemens Dr, 8808",
    "city": "Santa Teresa",
    "state": "NM",
    "zip": "88008",
    "transportation": {
      "drummonds": "1175",
      "yatesCenter": "887"
    }
  },
  "1418": {
    "slug_id": "1418",
    "name": "Columbia Livestock Market",
    "address": "4557 US-441",
    "city": "Lake City",
    "state": "FL",
    "zip": "32025",
    "transportation": {
      "drummonds": "707",
      "yatesCenter": "1136"
    }
  },
  "1420": {
    "slug_id": "1420",
    "name": "Townsend Livestock Market",
    "address": "387 Southeast Bandit Street",
    "city": "Madison",
    "state": "FL",
    "zip": "32340",
    "transportation": {
      "drummonds": "620",
      "yatesCenter": "1049"
    }
  },
  "1419": {
    "slug_id": "1419",
    "name": "Okeechobee Market",
    "address": "1055 US-98",
    "city": "Okeechobee",
    "state": "FL",
    "zip": "34972",
    "transportation": {
      "drummonds": "994",
      "yatesCenter": "1373"
    }
  },
  "1608": {
    "slug_id": "1608",
    "name": "Okeechobee Livestock Auction (Mon)",
    "address": "1055 US-98",
    "city": "Okeechobee",
    "state": "FL",
    "zip": "34972",
    "transportation": {
      "drummonds": "994",
      "yatesCenter": "1373"
    }
  },
  "1421": {
    "slug_id": "1421",
    "name": "Sumter County Farmers Market",
    "address": "524 N Market Blvd",
    "city": "Webster",
    "state": "FL",
    "zip": "33597",
    "transportation": {
      "drummonds": "826",
      "yatesCenter": "1255"
    }
  },
  "1422": {
    "slug_id": "1422",
    "name": "Arcadia Market",
    "address": "2719 Earnest St",
    "city": "Arcadia",
    "state": "FL",
    "zip": "34266",
    "transportation": {
      "drummonds": "949",
      "yatesCenter": "1378"
    }
  },
  "1609": {
    "slug_id": "1609",
    "name": "Arcadia Market",
    "address": "2719 Earnest St",
    "city": "Arcadia",
    "state": "FL",
    "zip": "34266",
    "transportation": {
      "drummonds": "949",
      "yatesCenter": "1378"
    }
  },
  "1423": {
    "slug_id": "1423",
    "name": "North Florida Livestock Market",
    "address": "12171 US-441",
    "city": "Lake City",
    "state": "FL",
    "zip": "32025",
    "transportation": {
      "drummonds": "707",
      "yatesCenter": "1136"
    }
  },
  "1424": {
    "slug_id": "1424",
    "name": "Ocala Livetock Market",
    "address": "9100 NW Highway 25A",
    "city": "Ocala",
    "state": "FL",
    "zip": "34482",
    "transportation": {
      "drummonds": "773",
      "yatesCenter": "1202"
    }
  },
  "1510": {
    "slug_id": "1510",
    "name": "St Joseph Stockyards Market",
    "address": "4603 Packers Ave",
    "city": "St Joseph",
    "state": "MO",
    "zip": "64504",
    "transportation": {
      "drummonds": "566",
      "yatesCenter": "151"
    }
  },
  "1511": {
    "slug_id": "1511",
    "name": "St Joseph Stockyards Market",
    "address": "4603 Packers Ave",
    "city": "St Joseph",
    "state": "MO",
    "zip": "64504",
    "transportation": {
      "drummonds": "566",
      "yatesCenter": "151"
    }
  },
  "1512": {
    "slug_id": "1512",
    "name": "St Joseph Stockyards Market",
    "address": "4603 Packers Ave",
    "city": "St Joseph",
    "state": "MO",
    "zip": "64504",
    "transportation": {
      "drummonds": "566",
      "yatesCenter": "151"
    }
  },
  "1607": {
    "slug_id": "1607",
    "name": "Lakeland Market",
    "address": "200 N Kentucky Ave",
    "city": "Lakeland",
    "state": "FL",
    "zip": "33801",
    "transportation": {
      "drummonds": "859",
      "yatesCenter": "1289"
    }
  },
  "1621": {
    "slug_id": "1621",
    "name": "Windsor Livestock Auction",
    "address": "1173 MO-52",
    "city": "Windsor",
    "state": "MO",
    "zip": "65360",
    "transportation": {
      "drummonds": "424",
      "yatesCenter": "173"
    }
  },
  "1622": {
    "slug_id": "1622",
    "name": "Windsor Livestock Auction",
    "address": "1173 MO-52",
    "city": "Windsor",
    "state": "MO",
    "zip": "65360",
    "transportation": {
      "drummonds": "424",
      "yatesCenter": "173"
    }
  }
}
